CCSDS_OMM_VERS = 2.0
CREATION_DATE  = 
ORIGINATOR     = 

OBJECT_NAME    = UNKNOWN
OBJECT_ID      = 
CENTER_NAME    = EARTH
REF_FRAME      = TEME
TIME_SYSTEM    = UTC
MEAN_ELEMENT_THEORY = SGP/SGP4

EPOCH          = 2025-12-07T10:45:02.403072
MEAN_MOTION    = 13.82655586
ECCENTRICITY   = .0566038
INCLINATION    = 65.7723
RA_OF_ASC_NODE = 42.7808
ARG_OF_PERICENTER = 310.2390
MEAN_ANOMALY   = 45.0442

EPHEMERIS_TYPE = 0
CLASSIFICATION_TYPE = U
NORAD_CAT_ID   = 81052
ELEMENT_SET_NO = 999
REV_AT_EPOCH   = 59958
BSTAR          = .29226E-2
MEAN_MOTION_DOT = .11086E-3
MEAN_MOTION_DDOT = 0

CCSDS_OMM_VERS = 2.0
CREATION_DATE  = 
ORIGINATOR     = 

OBJECT_NAME    = UNKNOWN
OBJECT_ID      = 
CENTER_NAME    = EARTH
REF_FRAME      = TEME
TIME_SYSTEM    = UTC
MEAN_ELEMENT_THEORY = SGP/SGP4

EPOCH          = 2025-12-07T23:39:04.246848
MEAN_MOTION    = 13.60456126
ECCENTRICITY   = .0066055
INCLINATION    = 100.3828
RA_OF_ASC_NODE = 242.8066
ARG_OF_PERICENTER = 53.4672
MEAN_ANOMALY   = 307.2523

EPHEMERIS_TYPE = 0
CLASSIFICATION_TYPE = U
NORAD_CAT_ID   = 81069
ELEMENT_SET_NO = 999
REV_AT_EPOCH   = 51528
BSTAR          = .63781E-2
MEAN_MOTION_DOT = .4817E-4
MEAN_MOTION_DDOT = 0

CCSDS_OMM_VERS = 2.0
CREATION_DATE  = 
ORIGINATOR     = 

OBJECT_NAME    = UNKNOWN
OBJECT_ID      = 
CENTER_NAME    = EARTH
REF_FRAME      = TEME
TIME_SYSTEM    = UTC
MEAN_ELEMENT_THEORY = SGP/SGP4

EPOCH          = 2025-11-19T21:46:52.452192
MEAN_MOTION    = 11.22438010
ECCENTRICITY   = .0179923
INCLINATION    = 65.1150
RA_OF_ASC_NODE = 295.2969
ARG_OF_PERICENTER = 6.6503
MEAN_ANOMALY   = 18.4737

EPHEMERIS_TYPE = 0
CLASSIFICATION_TYPE = U
NORAD_CAT_ID   = 81078
ELEMENT_SET_NO = 999
REV_AT_EPOCH   = 49206
BSTAR          = .34586E-2
MEAN_MOTION_DOT = .75E-6
MEAN_MOTION_DDOT = 0

CCSDS_OMM_VERS = 2.0
CREATION_DATE  = 
ORIGINATOR     = 

OBJECT_NAME    = UNKNOWN
OBJECT_ID      = 
CENTER_NAME    = EARTH
REF_FRAME      = TEME
TIME_SYSTEM    = UTC
MEAN_ELEMENT_THEORY = SGP/SGP4

EPOCH          = 2025-12-08T02:03:02.878272
MEAN_MOTION    = 7.55129872
ECCENTRICITY   = .3859729
INCLINATION    = 62.8816
RA_OF_ASC_NODE = 23.6507
ARG_OF_PERICENTER = 357.0432
MEAN_ANOMALY   = 1.2428

EPHEMERIS_TYPE = 0
CLASSIFICATION_TYPE = U
NORAD_CAT_ID   = 81111
ELEMENT_SET_NO = 999
REV_AT_EPOCH   = 27159
BSTAR          = .29454E-2
MEAN_MOTION_DOT = .13364E-3
MEAN_MOTION_DDOT = 0

CCSDS_OMM_VERS = 2.0
CREATION_DATE  = 
ORIGINATOR     = 

OBJECT_NAME    = UNKNOWN
OBJECT_ID      = 
CENTER_NAME    = EARTH
REF_FRAME      = TEME
TIME_SYSTEM    = UTC
MEAN_ELEMENT_THEORY = SGP/SGP4

EPOCH          = 2025-12-08T18:18:16.067808
MEAN_MOTION    = 12.92975963
ECCENTRICITY   = .0026602
INCLINATION    = 90.2477
RA_OF_ASC_NODE = 3.9402
ARG_OF_PERICENTER = 42.8018
MEAN_ANOMALY   = 317.5165

EPHEMERIS_TYPE = 0
CLASSIFICATION_TYPE = U
NORAD_CAT_ID   = 81134
ELEMENT_SET_NO = 999
REV_AT_EPOCH   = 46209
BSTAR          = .10143E-2
MEAN_MOTION_DOT = .284E-5
MEAN_MOTION_DDOT = 0

CCSDS_OMM_VERS = 2.0
CREATION_DATE  = 
ORIGINATOR     = 

OBJECT_NAME    = UNKNOWN
OBJECT_ID      = 
CENTER_NAME    = EARTH
REF_FRAME      = TEME
TIME_SYSTEM    = UTC
MEAN_ELEMENT_THEORY = SGP/SGP4

EPOCH          = 2025-12-08T09:35:50.266176
MEAN_MOTION    = 13.75610958
ECCENTRICITY   = .006388
INCLINATION    = 100.4168
RA_OF_ASC_NODE = 184.0291
ARG_OF_PERICENTER = 294.6255
MEAN_ANOMALY   = 64.8246

EPHEMERIS_TYPE = 0
CLASSIFICATION_TYPE = U
NORAD_CAT_ID   = 81161
ELEMENT_SET_NO = 999
REV_AT_EPOCH   = 55553
BSTAR          = .24035E-2
MEAN_MOTION_DOT = .2301E-4
MEAN_MOTION_DDOT = 0

CCSDS_OMM_VERS = 2.0
CREATION_DATE  = 
ORIGINATOR     = 

OBJECT_NAME    = UNKNOWN
OBJECT_ID      = 
CENTER_NAME    = EARTH
REF_FRAME      = TEME
TIME_SYSTEM    = UTC
MEAN_ELEMENT_THEORY = SGP/SGP4

EPOCH          = 2025-12-06T07:59:11.377248
MEAN_MOTION    = 13.81778939
ECCENTRICITY   = .0020388
INCLINATION    = 82.9264
RA_OF_ASC_NODE = 10.9550
ARG_OF_PERICENTER = 230.4749
MEAN_ANOMALY   = 129.4609

EPHEMERIS_TYPE = 0
CLASSIFICATION_TYPE = U
NORAD_CAT_ID   = 81219
ELEMENT_SET_NO = 999
REV_AT_EPOCH   = 60663
BSTAR          = .53867E-3
MEAN_MOTION_DOT = .592E-5
MEAN_MOTION_DDOT = 0

CCSDS_OMM_VERS = 2.0
CREATION_DATE  = 
ORIGINATOR     = 

OBJECT_NAME    = UNKNOWN
OBJECT_ID      = 
CENTER_NAME    = EARTH
REF_FRAME      = TEME
TIME_SYSTEM    = UTC
MEAN_ELEMENT_THEORY = SGP/SGP4

EPOCH          = 2025-12-09T04:54:03.764736
MEAN_MOTION    = 14.40693377
ECCENTRICITY   = .0062994
INCLINATION    = 70.5215
RA_OF_ASC_NODE = 284.6635
ARG_OF_PERICENTER = 5.4634
MEAN_ANOMALY   = 354.7172

EPHEMERIS_TYPE = 0
CLASSIFICATION_TYPE = U
NORAD_CAT_ID   = 81228
ELEMENT_SET_NO = 999
REV_AT_EPOCH   = 62558
BSTAR          = .27396E-2
MEAN_MOTION_DOT = .8922E-4
MEAN_MOTION_DDOT = 0

CCSDS_OMM_VERS = 2.0
CREATION_DATE  = 
ORIGINATOR     = 

OBJECT_NAME    = UNKNOWN
OBJECT_ID      = 
CENTER_NAME    = EARTH
REF_FRAME      = TEME
TIME_SYSTEM    = UTC
MEAN_ELEMENT_THEORY = SGP/SGP4

EPOCH          = 2025-12-08T02:29:10.690944
MEAN_MOTION    = 14.01461045
ECCENTRICITY   = .0071891
INCLINATION    = 100.3881
RA_OF_ASC_NODE = 43.5533
ARG_OF_PERICENTER = 85.8369
MEAN_ANOMALY   = 275.1003

EPHEMERIS_TYPE = 0
CLASSIFICATION_TYPE = U
NORAD_CAT_ID   = 81254
ELEMENT_SET_NO = 999
REV_AT_EPOCH   = 61224
BSTAR          = .31713E-2
MEAN_MOTION_DOT = .4847E-4
MEAN_MOTION_DDOT = 0

CCSDS_OMM_VERS = 2.0
CREATION_DATE  = 
ORIGINATOR     = 

OBJECT_NAME    = UNKNOWN
OBJECT_ID      = 
CENTER_NAME    = EARTH
REF_FRAME      = TEME
TIME_SYSTEM    = UTC
MEAN_ELEMENT_THEORY = SGP/SGP4

EPOCH          = 2025-12-08T09:46:11.705952
MEAN_MOTION    = 14.19927324
ECCENTRICITY   = .0207812
INCLINATION    = 98.1305
RA_OF_ASC_NODE = 42.1815
ARG_OF_PERICENTER = 38.1048
MEAN_ANOMALY   = 323.4620

EPHEMERIS_TYPE = 0
CLASSIFICATION_TYPE = U
NORAD_CAT_ID   = 81279
ELEMENT_SET_NO = 999
REV_AT_EPOCH   = 46198
BSTAR          = .70757E-3
MEAN_MOTION_DOT = .1826E-4
MEAN_MOTION_DDOT = 0

CCSDS_OMM_VERS = 2.0
CREATION_DATE  = 
ORIGINATOR     = 

OBJECT_NAME    = UNKNOWN
OBJECT_ID      = 
CENTER_NAME    = EARTH
REF_FRAME      = TEME
TIME_SYSTEM    = UTC
MEAN_ELEMENT_THEORY = SGP/SGP4

EPOCH          = 2025-12-08T15:54:39.822624
MEAN_MOTION    = 13.76703426
ECCENTRICITY   = .0094885
INCLINATION    = 66.7591
RA_OF_ASC_NODE = 305.6074
ARG_OF_PERICENTER = 235.2860
MEAN_ANOMALY   = 307.0375

EPHEMERIS_TYPE = 0
CLASSIFICATION_TYPE = U
NORAD_CAT_ID   = 81301
ELEMENT_SET_NO = 999
REV_AT_EPOCH   = 60579
BSTAR          = .54122E-3
MEAN_MOTION_DOT = .475E-5
MEAN_MOTION_DDOT = 0

CCSDS_OMM_VERS = 2.0
CREATION_DATE  = 
ORIGINATOR     = 

OBJECT_NAME    = UNKNOWN
OBJECT_ID      = 
CENTER_NAME    = EARTH
REF_FRAME      = TEME
TIME_SYSTEM    = UTC
MEAN_ELEMENT_THEORY = SGP/SGP4

EPOCH          = 2025-12-09T10:42:21.883968
MEAN_MOTION    = 14.56531583
ECCENTRICITY   = .0132137
INCLINATION    = 98.7330
RA_OF_ASC_NODE = 40.5657
ARG_OF_PERICENTER = 134.4046
MEAN_ANOMALY   = 238.4324

EPHEMERIS_TYPE = 0
CLASSIFICATION_TYPE = U
NORAD_CAT_ID   = 81311
ELEMENT_SET_NO = 999
REV_AT_EPOCH   = 63911
BSTAR          = .27885E-3
MEAN_MOTION_DOT = .1341E-4
MEAN_MOTION_DDOT = 0

