UNKNOWN                 
1 81052U          25341.44794448  .00011086  00000+0  29226-2 0  9993
2 81052  65.7723  42.7808 0566038 310.2390  45.0442 13.82655586599587
UNKNOWN                 
1 81069U          25341.98546582  .00004817  00000+0  63781-2 0  9992
2 81069 100.3828 242.8066 0066055  53.4672 307.2523 13.60456126515282
UNKNOWN                 
1 81078U          25323.90755153  .00000075  00000+0  34586-2 0  9993
2 81078  65.1150 295.2969 0179923   6.6503  18.4737 11.22438010492060
UNKNOWN                 
1 81111U          25342.08544998  .00013364  00000+0  29454-2 0  9997
2 81111  62.8816  23.6507 3859729 357.0432   1.2428  7.55129872271592
UNKNOWN                 
1 81134U          25342.76268597  .00000284  00000+0  10143-2 0  9997
2 81134  90.2477   3.9402 0026602  42.8018 317.5165 12.92975963462097
UNKNOWN                 
1 81161U          25342.39988734  .00002301  00000+0  24035-2 0  9995
2 81161 100.4168 184.0291 0063880 294.6255  64.8246 13.75610958555530
UNKNOWN                 
1 81219U          25340.33277057  .00000592  00000+0  53867-3 0  9996
2 81219  82.9264  10.9550 0020388 230.4749 129.4609 13.81778939606632
UNKNOWN                 
1 81228U          25343.20421024  .00008922  00000+0  27396-2 0  9992
2 81228  70.5215 284.6635 0062994   5.4634 354.7172 14.40693377625588
UNKNOWN                 
1 81254U          25342.10359596  .00004847  00000+0  31713-2 0  9993
2 81254 100.3881  43.5533 0071891  85.8369 275.1003 14.01461045612240
UNKNOWN                 
1 81279U          25342.40707993  .00001826  00000+0  70757-3 0  9997
2 81279  98.1305  42.1815 0207812  38.1048 323.4620 14.19927324461980
UNKNOWN                 
1 81301U          25342.66296091  .00000475  00000+0  54122-3 0  9990
2 81301  66.7591 305.6074 0094885 235.2860 307.0375 13.76703426605795
UNKNOWN                 
1 81311U          25343.44608662  .00001341  00000+0  27885-3 0  9998
2 81311  98.7330  40.5657 0132137 134.4046 238.4324 14.56531583639119
